[{"OBJECT_NAME":"STARLINK-30571","OBJECT_ID":"2023-158R","EPOCH":"2026-03-09T06:31:02.212896","MEAN_MOTION":15.27039751,"ECCENTRICITY":0.00016569,"INCLINATION":43.0003,"RA_OF_ASC_NODE":29.603,"ARG_OF_PERICENTER":178.1167,"MEAN_ANOMALY":181.9691,"EPHEMERIS_TYPE":0,"CLASSIFICATION_TYPE":"U","NORAD_CAT_ID":58066,"ELEMENT_SET_NO":999,"REV_AT_EPOCH":13350,"BSTAR":0.0022151432,"MEAN_MOTION_DOT":0.00060192,"MEAN_MOTION_DDOT":0},{"OBJECT_NAME":"UHETSAT","OBJECT_ID":"2023-185E","EPOCH":"2026-03-09T22:39:26.455680","MEAN_MOTION":15.29797662,"ECCENTRICITY":0.00118435,"INCLINATION":97.3584,"RA_OF_ASC_NODE":137.3576,"ARG_OF_PERICENTER":307.7346,"MEAN_ANOMALY":52.2821,"EPHEMERIS_TYPE":0,"CLASSIFICATION_TYPE":"U","NORAD_CAT_ID":58466,"ELEMENT_SET_NO":999,"REV_AT_EPOCH":12611,"BSTAR":0.00030513019,"MEAN_MOTION_DOT":8.749e-5,"MEAN_MOTION_DDOT":0}]
